{
  "links" : {
    "next" : "https://api.nasa.gov/neo/rest/v1/feed?start_date=1999-06-16&end_date=1999-06-16&detailed=true&api_key=t0TVs3DtDT2H8Oy2Zy8m2eVrNsAVKAexjcZXUckd",
    "prev" : "https://api.nasa.gov/neo/rest/v1/feed?start_date=1999-06-14&end_date=1999-06-14&detailed=true&api_key=t0TVs3DtDT2H8Oy2Zy8m2eVrNsAVKAexjcZXUckd",
    "self" : "https://api.nasa.gov/neo/rest/v1/feed?start_date=1999-06-15&end_date=1999-06-15&detailed=true&api_key=t0TVs3DtDT2H8Oy2Zy8m2eVrNsAVKAexjcZXUckd"
  },
  "element_count" : 2,
  "near_earth_objects" : {
    "1999-06-15" : [ {
      "links" : {
        "self" : "https://api.nasa.gov/neo/rest/v1/neo/2315098?api_key=t0TVs3DtDT2H8Oy2Zy8m2eVrNsAVKAexjcZXUckd"
      },
      "neo_reference_id" : "2315098",
      "name" : "315098 (2007 EX)",
      "nasa_jpl_url" : "http://ssd.jpl.nasa.gov/sbdb.cgi?sstr=2315098",
      "absolute_magnitude_h" : 16.9,
      "estimated_diameter" : {
        "kilometers" : {
          "estimated_diameter_min" : 1.1080388213,
          "estimated_diameter_max" : 2.4776501261
        },
        "meters" : {
          "estimated_diameter_min" : 1108.0388212642,
          "estimated_diameter_max" : 2477.6501260554
        },
        "miles" : {
          "estimated_diameter_min" : 0.6885031904,
          "estimated_diameter_max" : 1.5395399365
        },
        "feet" : {
          "estimated_diameter_min" : 3635.2980863563,
          "estimated_diameter_max" : 8128.7736395675
        }
      },
      "is_potentially_hazardous_asteroid" : false,
      "close_approach_data" : [ {
        "close_approach_date" : "1999-06-15",
        "epoch_date_close_approach" : 929430000000,
        "relative_velocity" : {
          "kilometers_per_second" : "14.6001400601",
          "kilometers_per_hour" : "52560.5042162228",
          "miles_per_hour" : "32659.0533003525"
        },
        "miss_distance" : {
          "astronomical" : "0.2309830256",
          "lunar" : "89.852394104",
          "kilometers" : "34554568",
          "miles" : "21471214"
        },
        "orbiting_body" : "Earth"
      } ],
      "orbital_data" : {
        "orbit_id" : "52",
        "orbit_determination_date" : "2017-04-11 18:55:40",
        "orbit_uncertainty" : "1",
        "minimum_orbit_intersection" : ".123215",
        "jupiter_tisserand_invariant" : "6.674",
        "epoch_osculation" : "2458000.5",
        "eccentricity" : ".417490878319518",
        "semi_major_axis" : ".8716622371043793",
        "inclination" : "18.70012010687406",
        "ascending_node_longitude" : "297.4587410771107",
        "orbital_period" : "297.2492545424648",
        "perihelion_distance" : ".507751204137716",
        "perihelion_argument" : "78.82011214918748",
        "aphelion_distance" : "1.235573270071042",
        "perihelion_time" : "2457938.382707630679",
        "mean_anomaly" : "75.23055116614593",
        "mean_motion" : "1.211104803455683",
        "equinox" : "J2000"
      }
    }, {
      "links" : {
        "self" : "https://api.nasa.gov/neo/rest/v1/neo/3644087?api_key=t0TVs3DtDT2H8Oy2Zy8m2eVrNsAVKAexjcZXUckd"
      },
      "neo_reference_id" : "3644087",
      "name" : "(2013 MR)",
      "nasa_jpl_url" : "http://ssd.jpl.nasa.gov/sbdb.cgi?sstr=3644087",
      "absolute_magnitude_h" : 21.7,
      "estimated_diameter" : {
        "kilometers" : {
          "estimated_diameter_min" : 0.1214940408,
          "estimated_diameter_max" : 0.2716689341
        },
        "meters" : {
          "estimated_diameter_min" : 121.4940407996,
          "estimated_diameter_max" : 271.6689340891
        },
        "miles" : {
          "estimated_diameter_min" : 0.0754928736,
          "estimated_diameter_max" : 0.1688071972
        },
        "feet" : {
          "estimated_diameter_min" : 398.6025088171,
          "estimated_diameter_max" : 891.3023057169
        }
      },
      "is_potentially_hazardous_asteroid" : false,
      "close_approach_data" : [ {
        "close_approach_date" : "1999-06-15",
        "epoch_date_close_approach" : 929430000000,
        "relative_velocity" : {
          "kilometers_per_second" : "26.5935982055",
          "kilometers_per_hour" : "95736.9535396956",
          "miles_per_hour" : "59487.2198258181"
        },
        "miss_distance" : {
          "astronomical" : "0.3929975427",
          "lunar" : "152.8760375977",
          "kilometers" : "58791596",
          "miles" : "36531404"
        },
        "orbiting_body" : "Earth"
      } ],
      "orbital_data" : {
        "orbit_id" : "18",
        "orbit_determination_date" : "2017-06-19 06:16:52",
        "orbit_uncertainty" : "2",
        "minimum_orbit_intersection" : ".0924772",
        "jupiter_tisserand_invariant" : "6.626",
        "epoch_osculation" : "2458000.5",
        "eccentricity" : ".4907842808730543",
        "semi_major_axis" : ".8735498309563976",
        "inclination" : "20.24394509001666",
        "ascending_node_longitude" : "266.8709908512386",
        "orbital_period" : "298.2153217149963",
        "perihelion_distance" : ".4448253053636839",
        "perihelion_argument" : "207.3540819703068",
        "aphelion_distance" : "1.302274356549111",
        "perihelion_time" : "2458144.496832403336",
        "mean_anomaly" : "186.1696972272156",
        "mean_motion" : "1.207181434976876",
        "equinox" : "J2000"
      }
    } ]
  }
}